{"type": "FeatureCollection", "features": [{"type": "Feature", "properties": {"norad_id": 50032, "name": "COSMOS 1408 DEB", "group": "cosmos-1408-debris", "lat": -63.838342966178885, "lon": 51.289475929932685, "alt_km": 431.2126122578875, "timestamp": "2025-12-04T17:48:40.436364+00:00", "meta": {"OBJECT_NAME": "COSMOS 1408 DEB", "OBJECT_ID": "1982-092RU", "EPOCH": "2025-12-04T07:12:52.092288", "MEAN_MOTION": 15.45562169, "ECCENTRICITY": 0.00147165, "INCLINATION": 82.5658, "RA_OF_ASC_NODE": 67.1573, "ARG_OF_PERICENTER": 241.6021, "MEAN_ANOMALY": 118.3745, "EPHEMERIS_TYPE": 0, "CLASSIFICATION_TYPE": "U", "NORAD_CAT_ID": 50032, "ELEMENT_SET_NO": 999, "REV_AT_EPOCH": 22473, "BSTAR": 0.00021483539, "MEAN_MOTION_DOT": 0.00010403, "MEAN_MOTION_DDOT": 0}, "tle": {"line1": "1 50032U 82092RU  25338.30060292  .00010403  00000+0  21484-3 0  9993", "line2": "2 50032  82.5658  67.1573 0014716 241.6021 118.3745 15.45562169224731"}}, "geometry": {"type": "Point", "coordinates": [51.289475929932685, -63.838342966178885]}}, {"type": "Feature", "properties": {"norad_id": 50058, "name": "COSMOS 1408 DEB", "group": "cosmos-1408-debris", "lat": -23.827749847571088, "lon": 74.42281580889296, "alt_km": 393.0916221013604, "timestamp": "2025-12-04T17:48:40.436385+00:00", "meta": {"OBJECT_NAME": "COSMOS 1408 DEB", "OBJECT_ID": "1982-092SW", "EPOCH": "2025-12-04T07:09:39.475584", "MEAN_MOTION": 15.63350029, "ECCENTRICITY": 0.00162609, "INCLINATION": 82.6139, "RA_OF_ASC_NODE": 78.171, "ARG_OF_PERICENTER": 128.8171, "MEAN_ANOMALY": 231.4543, "EPHEMERIS_TYPE": 0, "CLASSIFICATION_TYPE": "U", "NORAD_CAT_ID": 50058, "ELEMENT_SET_NO": 999, "REV_AT_EPOCH": 22672, "BSTAR": 0.00063988706, "MEAN_MOTION_DOT": 0.00059517, "MEAN_MOTION_DDOT": 0}, "tle": {"line1": "1 50058U 82092SW  25338.29837356  .00059517  00000+0  63989-3 0  9997", "line2": "2 50058  82.6139  78.1710 0016260 128.8171 231.4543 15.63350029226721"}}, "geometry": {"type": "Point", "coordinates": [74.42281580889296, -23.827749847571088]}}, {"type": "Feature", "properties": {"norad_id": 50404, "name": "COSMOS 1408 DEB", "group": "cosmos-1408-debris", "lat": 73.55806202547714, "lon": 15.560130703440157, "alt_km": 585.5866933890384, "timestamp": "2025-12-04T17:48:40.436398+00:00", "meta": {"OBJECT_NAME": "COSMOS 1408 DEB", "OBJECT_ID": "1982-092ADS", "EPOCH": "2025-12-04T03:02:32.219520", "MEAN_MOTION": 15.11972911, "ECCENTRICITY": 0.01759389, "INCLINATION": 82.207, "RA_OF_ASC_NODE": 223.8385, "ARG_OF_PERICENTER": 228.6918, "MEAN_ANOMALY": 129.9057, "EPHEMERIS_TYPE": 0, "CLASSIFICATION_TYPE": "U", "NORAD_CAT_ID": 50404, "ELEMENT_SET_NO": 999, "REV_AT_EPOCH": 21063, "BSTAR": 0.0052613218, "MEAN_MOTION_DOT": 0.00133611, "MEAN_MOTION_DDOT": 0}, "tle": {"line1": "1 50404U 82092ADS 25338.12676180  .00133611  00000+0  52613-2 0  9999", "line2": "2 50404  82.2070 223.8385 0175938 228.6918 129.9057 15.11972911210636"}}, "geometry": {"type": "Point", "coordinates": [15.560130703440157, 73.55806202547714]}}, {"type": "Feature", "properties": {"norad_id": 50621, "name": "COSMOS 1408 DEB", "group": "cosmos-1408-debris", "lat": -25.15946773540752, "lon": -93.98415210301135, "alt_km": 386.9277997820518, "timestamp": "2025-12-04T17:48:40.436410+00:00", "meta": {"OBJECT_NAME": "COSMOS 1408 DEB", "OBJECT_ID": "1982-092ALR", "EPOCH": "2025-12-04T07:40:18.152256", "MEAN_MOTION": 15.55994248, "ECCENTRICITY": 0.00288655, "INCLINATION": 82.5706, "RA_OF_ASC_NODE": 82.9412, "ARG_OF_PERICENTER": 183.2784, "MEAN_ANOMALY": 176.8286, "EPHEMERIS_TYPE": 0, "CLASSIFICATION_TYPE": "U", "NORAD_CAT_ID": 50621, "ELEMENT_SET_NO": 999, "REV_AT_EPOCH": 22119, "BSTAR": 0.0007370431, "MEAN_MOTION_DOT": 0.00052478, "MEAN_MOTION_DDOT": 0}, "tle": {"line1": "1 50621U 82092ALR 25338.31965454  .00052478  00000+0  73704-3 0  9992", "line2": "2 50621  82.5706  82.9412 0028865 183.2784 176.8286 15.55994248221197"}}, "geometry": {"type": "Point", "coordinates": [-93.98415210301135, -25.15946773540752]}}]}